{
    "links": {
        "self": "http://www.neowsapp.com/rest/v1/neo/3578686?api_key=iIulBulltgU6a56xZRHN4H3l9WmuAYTsLGpBGhQ2"
    },
    "id": "3578686",
    "neo_reference_id": "3578686",
    "name": "(2011 SP12)",
    "designation": "2011 SP12",
    "nasa_jpl_url": "http://ssd.jpl.nasa.gov/sbdb.cgi?sstr=3578686",
    "absolute_magnitude_h": 22.3,
    "estimated_diameter": {
        "kilometers": {
            "estimated_diameter_min": 0.0921626549,
            "estimated_diameter_max": 0.2060819612
        },
        "meters": {
            "estimated_diameter_min": 92.1626548503,
            "estimated_diameter_max": 206.0819612321
        },
        "miles": {
            "estimated_diameter_min": 0.057267201,
            "estimated_diameter_max": 0.1280533543
        },
        "feet": {
            "estimated_diameter_min": 302.370924539,
            "estimated_diameter_max": 676.1219416887
        }
    },
    "is_potentially_hazardous_asteroid": false,
    "close_approach_data": [
        {
            "close_approach_date": "2011-08-28",
            "close_approach_date_full": "2011-Aug-28 20:15",
            "epoch_date_close_approach": 1314562500000,
            "relative_velocity": {
                "kilometers_per_second": "12.3911492747",
                "kilometers_per_hour": "44608.1373889672",
                "miles_per_hour": "27717.7618126057"
            },
            "miss_distance": {
                "astronomical": "0.1193228221",
                "lunar": "46.4165777969",
                "kilometers": "17850440.028548927",
                "miles": "11091749.1025001126"
            },
            "orbiting_body": "Earth"
        }
    ],
    "orbital_data": {
        "orbit_id": "9",
        "orbit_determination_date": "2017-04-06 08:52:51",
        "first_observation_date": "2011-09-19",
        "last_observation_date": "2011-09-29",
        "data_arc_in_days": 10,
        "observations_used": 29,
        "orbit_uncertainty": "8",
        "minimum_orbit_intersection": ".117051",
        "jupiter_tisserand_invariant": "3.250",
        "epoch_osculation": "2455827.5",
        "eccentricity": ".5711144200871945",
        "semi_major_axis": "2.399347059997251",
        "inclination": "14.17304474436926",
        "ascending_node_longitude": "171.7761942061253",
        "orbital_period": "1357.494363997221",
        "perihelion_distance": "1.029045355239006",
        "perihelion_argument": "128.2496335764147",
        "aphelion_distance": "3.769648764755496",
        "perihelion_time": "2455773.062409619149",
        "mean_anomaly": "14.43654799376131",
        "mean_motion": ".2651944711873125",
        "equinox": "J2000",
        "orbit_class": {
            "orbit_class_type": "AMO",
            "orbit_class_description": "Near-Earth asteroid orbits similar to that of 1221 Amor",
            "orbit_class_range": "1.017 AU < q (perihelion) < 1.3 AU"
        }
    },
    "is_sentry_object": false
}